OBJECT_NAME,OBJECT_ID,EPOCH,MEAN_MOTION,ECCENTRICITY,INCLINATION,RA_OF_ASC_NODE,ARG_OF_PERICENTER,MEAN_ANOMALY,EPHEMERIS_TYPE,CLASSIFICATION_TYPE,NORAD_CAT_ID,ELEMENT_SET_NO,REV_AT_EPOCH,BSTAR,MEAN_MOTION_DOT,MEAN_MOTION_DDOT
STARLINK-32359,2024-209U,2026-07-11T14:23:58.546752,15.34399727,.0000345,53.1586,279.3397,65.5622,294.5417,0,U,61957,999,9399,.63986E-3,.21304E-3,0
STARLINK-32566,2024-209V,2026-07-11T06:38:01.653792,15.34366335,.00013526,53.1568,280.8820,88.4079,271.7079,0,U,61958,999,9394,.73393337E-3,.24475E-3,0
STARLINK-32499,2024-210A,2026-07-11T09:27:57.468960,15.27604188,.00018763,43.0017,200.8074,283.0640,77.0002,0,U,61959,999,9384,.3800792E-3,.10219E-3,0
STARLINK-32372,2024-210B,2026-07-11T09:39:03.143808,15.27606420,.00029011,43.0050,200.8597,253.3629,106.6904,0,U,61960,999,9370,.51964535E-3,.14077E-3,0
STARLINK-32452,2024-210C,2026-07-11T09:53:24.626976,15.27589842,.00015572,42.9996,194.0194,278.7584,81.3092,0,U,61961,999,9391,.3375958E-3,.9042E-4,0
STARLINK-32458,2024-210D,2026-07-11T09:17:48.209856,15.27551851,.00027983,43.0013,186.9093,294.4309,65.6250,0,U,61962,999,9399,.13108564E-3,.3343E-4,0
STARLINK-32487,2024-210E,2026-07-11T08:47:27.437856,15.27589305,.00021202,43.0006,201.4496,261.3951,98.6661,0,U,61963,999,9382,.35811895E-3,.9608E-4,0
STARLINK-32513,2024-210F,2026-07-11T10:35:18.131712,15.27582997,.0001302,42.9992,186.4523,243.1388,116.9331,0,U,61964,999,9400,.4574873E-3,.12349E-3,0
STARLINK-32514,2024-210G,2026-07-11T00:34:01.366752,15.27601848,.00011484,42.9988,196.2611,251.2153,108.8574,0,U,61965,999,9385,.58782833E-3,.15959E-3,0
STARLINK-32498,2024-210H,2026-07-11T00:50:00.353184,15.27582076,.00015074,42.9999,188.5566,281.3088,78.7594,0,U,61966,999,9394,.26044139E-3,.6912E-4,0
STARLINK-32518,2024-210J,2026-07-11T13:44:13.625088,15.27589505,.0001787,42.9999,193.3069,275.8432,84.2216,0,U,61967,999,9380,.25937E-3,.6884E-4,0
STARLINK-32471,2024-210K,2026-07-11T09:44:09.094848,15.27596797,.00021509,43.0017,193.9730,273.2184,86.8421,0,U,61968,999,9392,.47045796E-3,.12713E-3,0
STARLINK-32450,2024-210L,2026-07-11T09:49:42.056256,15.27604393,.00028021,43.0027,194.0012,277.1173,82.9360,0,U,61969,999,9378,.46289125E-3,.12507E-3,0
STARLINK-32613,2024-210M,2026-07-11T10:47:31.558848,15.27577970,.00011322,42.9983,201.2168,293.6905,66.3828,0,U,61970,999,9384,.14204295E-3,.3648E-4,0
STARLINK-32610,2024-210N,2026-07-11T10:36:25.144416,15.27602486,.00015981,42.9989,201.1587,272.9121,87.1548,0,U,61971,999,9384,.27964635E-3,.7446E-4,0
STARLINK-32612,2024-210P,2026-07-11T10:41:58.634592,15.27582687,.000194,42.9996,201.1877,268.8769,91.1861,0,U,61972,999,9380,.12976423E-3,.3311E-4,0
STARLINK-32601,2024-210Q,2026-07-11T01:42:43.363872,15.27581393,.000183,42.9950,202.6725,166.3675,193.7226,0,U,61973,999,9375,.30293537E-3,.8084E-4,0
STARLINK-32593,2024-210R,2026-07-11T12:30:55.718208,15.27594576,.0001561,42.9988,200.8954,278.0440,82.0234,0,U,61974,999,9381,.22595E-3,.5963E-4,0
STARLINK-32586,2024-210S,2026-07-11T08:41:54.511872,15.27596667,.0001627,43.0015,201.4230,269.2497,90.8168,0,U,61975,999,9379,.37242512E-3,.10005E-3,0
STARLINK-32611,2024-210T,2026-07-11T10:10:31.118592,15.27595458,.00025736,43.0031,201.0271,291.4756,68.5821,0,U,61976,999,9380,.29264156E-3,.7803E-4,0
STARLINK-32607,2024-210U,2026-07-11T01:05:56.000256,15.27579462,.00023569,42.9989,203.3422,270.6018,89.4563,0,U,61977,999,9378,.33248387E-3,.8898E-4,0
STARLINK-32606,2024-210V,2026-07-11T09:48:18.856512,15.27586759,.00020433,43.0027,200.9115,275.9298,84.1321,0,U,61978,999,9380,.50440302E-3,.13647E-3,0
STARLINK-32578,2024-210W,2026-07-11T11:24:18.976032,15.27591267,.00019486,43.0028,200.5532,282.5359,77.5275,0,U,61979,999,9385,.36023784E-3,.9667E-4,0
STARLINK-32517,2024-210X,2026-07-11T09:18:54.891648,15.27592333,.00019539,42.9989,201.6154,284.1774,75.8861,0,U,61980,999,9374,.4581461E-3,.12371E-3,0
STARLINK-32522,2024-210Y,2026-07-11T08:30:48.344544,15.27583836,.00019678,43.0013,201.3688,290.2097,69.8543,0,U,61981,999,9379,.26151321E-3,.6942E-4,0
STARLINK-32560,2024-210Z,2026-07-11T09:44:36.361824,15.27593773,.00023577,43.0041,200.8916,272.9302,87.1280,0,U,61982,999,9380,.38384185E-3,.1032E-3,0
OPTUS-X (ADS-01),2024-212A,2026-07-11T17:43:23.177280,1.00270246,.0002357,0.0169,27.4787,126.2641,198.1413,0,U,62006,999,600,0,-.139E-5,0
STARLINK-11433 [DTC],2024-213A,2026-07-11T21:12:56.835360,15.69787501,.000183,53.1566,148.8550,118.3896,241.7306,0,U,62008,999,9442,.14926E-2,.18492E-2,0
STARLINK-11262 [DTC],2024-213B,2026-07-11T08:24:18.034272,15.69734498,.00012116,53.1561,151.9436,101.0486,259.0668,0,U,62009,999,9433,.26354663E-3,.31493E-3,0
