STARLINK-32359          
1 61957U 24209U   26192.59998319  .00021304  00000+0  63986-3 0  9992
2 61957  53.1586 279.3397 0000344  65.5622 294.5417 15.34399727 93997
STARLINK-32566          
1 61958U 24209V   26192.27640803  .00024475  00000+0  73393-3 0  9995
2 61958  53.1568 280.8820 0001352  88.4079 271.7079 15.34366335 93941
STARLINK-32499          
1 61959U 24210A   26192.39441515  .00010219  00000+0  38008-3 0  9995
2 61959  43.0017 200.8074 0001876 283.0640  77.0002 15.27604188 93845
STARLINK-32372          
1 61960U 24210B   26192.40211972  .00014077  00000+0  51965-3 0  9994
2 61960  43.0050 200.8597 0002901 253.3629 106.6904 15.27606420 93707
STARLINK-32452          
1 61961U 24210C   26192.41209059  .00009042  00000+0  33760-3 0  9998
2 61961  42.9996 194.0194 0001557 278.7584  81.3092 15.27589842 93917
STARLINK-32458          
1 61962U 24210D   26192.38736354  .00003343  00000+0  13109-3 0  9991
2 61962  43.0013 186.9093 0002798 294.4309  65.6250 15.27551851 93994
STARLINK-32487          
1 61963U 24210E   26192.36628979  .00009608  00000+0  35812-3 0  9998
2 61963  43.0006 201.4496 0002120 261.3951  98.6661 15.27589305 93821
STARLINK-32513          
1 61964U 24210F   26192.44118208  .00012349  00000+0  45749-3 0  9993
2 61964  42.9992 186.4523 0001302 243.1388 116.9331 15.27582997 94009
STARLINK-32514          
1 61965U 24210G   26192.02362693  .00015959  00000+0  58783-3 0  9999
2 61965  42.9988 196.2611 0001148 251.2153 108.8574 15.27601848 93858
STARLINK-32498          
1 61966U 24210H   26192.03472631  .00006912  00000+0  26044-3 0  9999
2 61966  42.9999 188.5566 0001507 281.3088  78.7594 15.27582076 93942
STARLINK-32518          
1 61967U 24210J   26192.57237993  .00006884  00000+0  25937-3 0  9997
2 61967  42.9999 193.3069 0001787 275.8432  84.2216 15.27589505 93808
STARLINK-32471          
1 61968U 24210K   26192.40566082  .00012713  00000+0  47046-3 0  9997
2 61968  43.0017 193.9730 0002150 273.2184  86.8421 15.27596797 93924
STARLINK-32450          
1 61969U 24210L   26192.40951454  .00012507  00000+0  46289-3 0  9998
2 61969  43.0027 194.0012 0002802 277.1173  82.9360 15.27604393 93781
STARLINK-32613          
1 61970U 24210M   26192.44967082  .00003648  00000+0  14204-3 0  9996
2 61970  42.9983 201.2168 0001132 293.6905  66.3828 15.27577970 93848
STARLINK-32610          
1 61971U 24210N   26192.44195769  .00007446  00000+0  27965-3 0  9990
2 61971  42.9989 201.1587 0001598 272.9121  87.1548 15.27602486 93846
STARLINK-32612          
1 61972U 24210P   26192.44581753  .00003311  00000+0  12976-3 0  9996
2 61972  42.9996 201.1877 0001940 268.8769  91.1861 15.27582687 93809
STARLINK-32601          
1 61973U 24210Q   26192.07133523  .00008084  00000+0  30294-3 0  9999
2 61973  42.9950 202.6725 0001830 166.3675 193.7226 15.27581393 93755
STARLINK-32593          
1 61974U 24210R   26192.52147822  .00005963  00000+0  22595-3 0  9995
2 61974  42.9988 200.8954 0001560 278.0440  82.0234 15.27594576 93815
STARLINK-32586          
1 61975U 24210S   26192.36243648  .00010005  00000+0  37243-3 0  9990
2 61975  43.0015 201.4230 0001627 269.2497  90.8168 15.27596667 93794
STARLINK-32611          
1 61976U 24210T   26192.42397128  .00007803  00000+0  29264-3 0  9997
2 61976  43.0031 201.0271 0002573 291.4756  68.5821 15.27595458 93807
STARLINK-32607          
1 61977U 24210U   26192.04578704  .00008898  00000+0  33248-3 0  9999
2 61977  42.9989 203.3422 0002356 270.6018  89.4563 15.27579462 93789
STARLINK-32606          
1 61978U 24210V   26192.40855158  .00013647  00000+0  50440-3 0  9992
2 61978  43.0027 200.9115 0002043 275.9298  84.1321 15.27586759 93802
STARLINK-32578          
1 61979U 24210W   26192.47521963  .00009667  00000+0  36024-3 0  9993
2 61979  43.0028 200.5532 0001948 282.5359  77.5275 15.27591267 93857
STARLINK-32517          
1 61980U 24210X   26192.38813532  .00012371  00000+0  45815-3 0  9995
2 61980  42.9989 201.6154 0001953 284.1774  75.8861 15.27592333 93745
STARLINK-32522          
1 61981U 24210Y   26192.35472621  .00006942  00000+0  26151-3 0  9992
2 61981  43.0013 201.3688 0001967 290.2097  69.8543 15.27583836 93799
STARLINK-32560          
1 61982U 24210Z   26192.40597641  .00010320  00000+0  38384-3 0  9995
2 61982  43.0041 200.8916 0002357 272.9302  87.1280 15.27593773 93803
OPTUS-X (ADS-01)        
1 62006U 24212A   26192.73846270 -.00000139  00000+0  00000+0 0  9994
2 62006   0.0169  27.4787 0002357 126.2641 198.1413  1.00270246  6001
STARLINK-11433 [DTC]    
1 62008U 24213A   26192.88399115  .00184920  00000+0  14926-2 0  9999
2 62008  53.1566 148.8550 0001830 118.3896 241.7306 15.69787501 94424
STARLINK-11262 [DTC]    
1 62009U 24213B   26192.35020873  .00031493  00000+0  26355-3 0  9990
2 62009  53.1561 151.9436 0001211 101.0486 259.0668 15.69734498 94335
